[{"OBJECT_NAME":"STARLINK-34480","OBJECT_ID":"2025-129R","EPOCH":"2026-03-09T23:34:57.825408","MEAN_MOTION":14.98332626,"ECCENTRICITY":0.00034043,"INCLINATION":70.001,"RA_OF_ASC_NODE":73.6158,"ARG_OF_PERICENTER":268.4976,"MEAN_ANOMALY":91.5793,"EPHEMERIS_TYPE":0,"CLASSIFICATION_TYPE":"U","NORAD_CAT_ID":64427,"ELEMENT_SET_NO":999,"REV_AT_EPOCH":4133,"BSTAR":0.00032514467,"MEAN_MOTION_DOT":3.789e-5,"MEAN_MOTION_DDOT":0},{"OBJECT_NAME":"USA 25","OBJECT_ID":"1987-043H","EPOCH":"2026-03-09T22:37:27.916608","MEAN_MOTION":13.88545808,"ECCENTRICITY":0.07905574,"INCLINATION":63.2894,"RA_OF_ASC_NODE":272.1916,"ARG_OF_PERICENTER":101.4908,"MEAN_ANOMALY":267.5915,"EPHEMERIS_TYPE":0,"CLASSIFICATION_TYPE":"U","NORAD_CAT_ID":18025,"ELEMENT_SET_NO":999,"REV_AT_EPOCH":33808,"BSTAR":0.0008943639,"MEAN_MOTION_DOT":0.00017183,"MEAN_MOTION_DDOT":0}]
